{
"type": "FeatureCollection",
"name": "boulder_cafe",
"crs": { "type": "name", "properties": { "name": "urn:ogc:def:crs:OGC:1.3:CRS84" } },
"features": [
{ "type": "Feature", "properties": { "amenity": "cafe", "name": "South Side Cafe", "id": 559697927, "building": null }, "geometry": { "type": "Point", "coordinates": [ -105.2493688, 39.9830151 ] } },
{ "type": "Feature", "properties": { "amenity": "cafe", "name": "Starbucks", "id": 564844204, "building": null }, "geometry": { "type": "Point", "coordinates": [ -105.2630757, 39.9999497 ] } },
{ "type": "Feature", "properties": { "amenity": "cafe", "name": "Cafe Sole", "id": 573692799, "building": null }, "geometry": { "type": "Point", "coordinates": [ -105.2498788, 39.9831108 ] } },
{ "type": "Feature", "properties": { "amenity": "cafe", "name": "Mickey C's Bagels", "id": 972995825, "building": null }, "geometry": { "type": "Point", "coordinates": [ -105.2502596, 39.9835535 ] } },
{ "type": "Feature", "properties": { "amenity": "cafe", "name": "Capital One Cafe", "id": 1087811656, "building": null }, "geometry": { "type": "Point", "coordinates": [ -105.2789067, 40.0182543 ] } },
{ "type": "Feature", "properties": { "amenity": "cafe", "name": "Amante", "id": 1109733242, "building": null }, "geometry": { "type": "Point", "coordinates": [ -105.2819298, 40.0579758 ] } },
{ "type": "Feature", "properties": { "amenity": "cafe", "name": "Rush II", "id": 1109735617, "building": null }, "geometry": { "type": "Point", "coordinates": [ -105.2825456, 40.0580356 ] } },
{ "type": "Feature", "properties": { "amenity": "cafe", "name": "Brewing Market Coffee", "id": 1185574416, "building": null }, "geometry": { "type": "Point", "coordinates": [ -105.2611596, 39.9996362 ] } },
{ "type": "Feature", "properties": { "amenity": "cafe", "name": "Tea and Cakes", "id": 1204448220, "building": null }, "geometry": { "type": "Point", "coordinates": [ -105.2771027, 40.0180623 ] } },
{ "type": "Feature", "properties": { "amenity": "cafe", "name": "Starbucks", "id": 1305385014, "building": null }, "geometry": { "type": "Point", "coordinates": [ -105.258967, 40.0219958 ] } },
{ "type": "Feature", "properties": { "amenity": "cafe", "name": "Red Rock Coffeehouse", "id": 1309667629, "building": null }, "geometry": { "type": "Point", "coordinates": [ -105.2605187, 40.0358055 ] } },
{ "type": "Feature", "properties": { "amenity": "cafe", "name": "Ozo Coffee", "id": 1403540019, "building": null }, "geometry": { "type": "Point", "coordinates": [ -105.2821807, 40.0175786 ] } },
{ "type": "Feature", "properties": { "amenity": "cafe", "name": "Big Daddy Bagels", "id": 1437412829, "building": null }, "geometry": { "type": "Point", "coordinates": [ -105.2333464, 39.9976562 ] } },
{ "type": "Feature", "properties": { "amenity": "cafe", "name": "Woodgrain Bagels", "id": 1930911750, "building": null }, "geometry": { "type": "Point", "coordinates": [ -105.2622335, 40.0151011 ] } },
{ "type": "Feature", "properties": { "amenity": "cafe", "name": "Ozo Coffee Company", "id": 2062343771, "building": null }, "geometry": { "type": "Point", "coordinates": [ -105.2283977, 40.0142821 ] } },
{ "type": "Feature", "properties": { "amenity": "cafe", "name": "Starbucks", "id": 2096898867, "building": null }, "geometry": { "type": "Point", "coordinates": [ -105.234204, 39.9981687 ] } },
{ "type": "Feature", "properties": { "amenity": "cafe", "name": "Weather Tech Cafe", "id": 2177939678, "building": null }, "geometry": { "type": "Point", "coordinates": [ -105.2642885, 40.0045611 ] } },
{ "type": "Feature", "properties": { "amenity": "cafe", "name": "The Point Cafe", "id": 2203467796, "building": null }, "geometry": { "type": "Point", "coordinates": [ -105.2764278, 40.0074579 ] } },
{ "type": "Feature", "properties": { "amenity": "cafe", "name": "Starbucks", "id": 2203467803, "building": null }, "geometry": { "type": "Point", "coordinates": [ -105.2752133, 40.0071842 ] } },
{ "type": "Feature", "properties": { "amenity": "cafe", "name": "Starbucks", "id": 2213712823, "building": null }, "geometry": { "type": "Point", "coordinates": [ -105.2713993, 40.0068842 ] } },
{ "type": "Feature", "properties": { "amenity": "cafe", "name": "Pekoe Sip House", "id": 2247077269, "building": null }, "geometry": { "type": "Point", "coordinates": [ -105.269776, 40.0077095 ] } },
{ "type": "Feature", "properties": { "amenity": "cafe", "name": "Violet Peak", "id": 2247077271, "building": null }, "geometry": { "type": "Point", "coordinates": [ -105.2632463, 40.0073931 ] } },
{ "type": "Feature", "properties": { "amenity": "cafe", "name": "Flatiron Coffee", "id": 2310482933, "building": null }, "geometry": { "type": "Point", "coordinates": [ -105.259117, 40.0149585 ] } },
{ "type": "Feature", "properties": { "amenity": "cafe", "name": "Alpine Modern", "id": 2310496207, "building": null }, "geometry": { "type": "Point", "coordinates": [ -105.2568127, 40.0169694 ] } },
{ "type": "Feature", "properties": { "amenity": "cafe", "name": "Amante Coffee", "id": 2362000042, "building": null }, "geometry": { "type": "Point", "coordinates": [ -105.256101, 39.9998141 ] } },
{ "type": "Feature", "properties": { "amenity": "cafe", "name": "Human Kind Coffee House", "id": 2662821333, "building": null }, "geometry": { "type": "Point", "coordinates": [ -105.2010245, 40.0722541 ] } },
{ "type": "Feature", "properties": { "amenity": "cafe", "name": "The Laughing Goat", "id": 2667851887, "building": null }, "geometry": { "type": "Point", "coordinates": [ -105.2702329, 40.0087817 ] } },
{ "type": "Feature", "properties": { "amenity": "cafe", "name": "Folsom Street Coffee Company", "id": 2681223497, "building": null }, "geometry": { "type": "Point", "coordinates": [ -105.2689238, 40.0088926 ] } },
{ "type": "Feature", "properties": { "amenity": "cafe", "name": "Lollicup", "id": 2700650301, "building": null }, "geometry": { "type": "Point", "coordinates": [ -105.276059, 40.0082509 ] } },
{ "type": "Feature", "properties": { "amenity": "cafe", "name": "Rush bowl", "id": 2700664448, "building": null }, "geometry": { "type": "Point", "coordinates": [ -105.2763842, 40.0088858 ] } },
{ "type": "Feature", "properties": { "amenity": "cafe", "name": "Cafe Aion", "id": 2700664449, "building": null }, "geometry": { "type": "Point", "coordinates": [ -105.27651, 40.0088098 ] } },
{ "type": "Feature", "properties": { "amenity": "cafe", "name": "Brewing Market", "id": 2701899578, "building": null }, "geometry": { "type": "Point", "coordinates": [ -105.262331, 40.0160582 ] } },
{ "type": "Feature", "properties": { "amenity": "cafe", "name": "The Hub", "id": 2703606305, "building": null }, "geometry": { "type": "Point", "coordinates": [ -105.2628546, 40.0030173 ] } },
{ "type": "Feature", "properties": { "amenity": "cafe", "name": "Ozo Coffee", "id": 2705164621, "building": null }, "geometry": { "type": "Point", "coordinates": [ -105.275355, 40.0189856 ] } },
{ "type": "Feature", "properties": { "amenity": "cafe", "name": "The Laughing Goat", "id": 3454431280, "building": null }, "geometry": { "type": "Point", "coordinates": [ -105.2730905, 40.0194618 ] } },
{ "type": "Feature", "properties": { "amenity": "cafe", "name": "Brewing Market Coffee", "id": 3868122184, "building": null }, "geometry": { "type": "Point", "coordinates": [ -105.2783146, 40.0175719 ] } },
{ "type": "Feature", "properties": { "amenity": "cafe", "name": "Naropa Cafe", "id": 3906689275, "building": null }, "geometry": { "type": "Point", "coordinates": [ -105.2670439, 40.0139149 ] } },
{ "type": "Feature", "properties": { "amenity": "cafe", "name": "Pekoe Sip House", "id": 4350338528, "building": null }, "geometry": { "type": "Point", "coordinates": [ -105.281479, 40.0259306 ] } },
{ "type": "Feature", "properties": { "amenity": "cafe", "name": "Trident", "id": 4624124314, "building": null }, "geometry": { "type": "Point", "coordinates": [ -105.2829889, 40.0171416 ] } },
{ "type": "Feature", "properties": { "amenity": "cafe", "name": "Wonder", "id": 4624124315, "building": null }, "geometry": { "type": "Point", "coordinates": [ -105.2827516, 40.0171888 ] } },
{ "type": "Feature", "properties": { "amenity": "cafe", "name": "Alpine Modern", "id": 4681194337, "building": null }, "geometry": { "type": "Point", "coordinates": [ -105.2818289, 40.0173809 ] } },
{ "type": "Feature", "properties": { "amenity": "cafe", "name": "The Yellow Deli", "id": 4687240389, "building": null }, "geometry": { "type": "Point", "coordinates": [ -105.283573, 40.0170281 ] } },
{ "type": "Feature", "properties": { "amenity": "cafe", "name": "Parkway Cafe", "id": 4701852247, "building": null }, "geometry": { "type": "Point", "coordinates": [ -105.2432948, 40.0249477 ] } },
{ "type": "Feature", "properties": { "amenity": "cafe", "name": "Vic's Espresso", "id": 4717701275, "building": null }, "geometry": { "type": "Point", "coordinates": [ -105.2544955, 40.03527 ] } },
{ "type": "Feature", "properties": { "amenity": "cafe", "name": "Spruce Confections", "id": 4717701293, "building": null }, "geometry": { "type": "Point", "coordinates": [ -105.2855285, 40.0168884 ] } },
{ "type": "Feature", "properties": { "amenity": "cafe", "name": "Amante", "id": 4717838028, "building": null }, "geometry": { "type": "Point", "coordinates": [ -105.2814436, 40.0166491 ] } },
{ "type": "Feature", "properties": { "amenity": "cafe", "name": "Spruce Confections", "id": 4725333626, "building": null }, "geometry": { "type": "Point", "coordinates": [ -105.2818988, 40.0596887 ] } },
{ "type": "Feature", "properties": { "amenity": "cafe", "name": "The Unseen Bean Cafe", "id": 4725367149, "building": null }, "geometry": { "type": "Point", "coordinates": [ -105.2800489, 40.0185447 ] } },
{ "type": "Feature", "properties": { "amenity": "cafe", "name": "January coffee", "id": 5075476322, "building": null }, "geometry": { "type": "Point", "coordinates": [ -105.2517273, 40.0197522 ] } },
{ "type": "Feature", "properties": { "amenity": "cafe", "name": "Pekoe Sip House", "id": 5097129577, "building": null }, "geometry": { "type": "Point", "coordinates": [ -105.253492, 40.0268771 ] } },
{ "type": "Feature", "properties": { "amenity": "cafe", "name": "Le Peep", "id": 5180687403, "building": null }, "geometry": { "type": "Point", "coordinates": [ -105.2610198, 40.0161668 ] } },
{ "type": "Feature", "properties": { "amenity": "cafe", "name": "Boulder Baked", "id": 5182325486, "building": null }, "geometry": { "type": "Point", "coordinates": [ -105.2799511, 40.0171862 ] } },
{ "type": "Feature", "properties": { "amenity": "cafe", "name": "Beleza Coffee", "id": 5741678381, "building": null }, "geometry": { "type": "Point", "coordinates": [ -105.2811621, 40.0252277 ] } },
{ "type": "Feature", "properties": { "amenity": "cafe", "name": "Baby Goat", "id": 6089311274, "building": null }, "geometry": { "type": "Point", "coordinates": [ -105.2259705, 40.0280827 ] } },
{ "type": "Feature", "properties": { "amenity": "cafe", "name": "Ozo Coffee", "id": 6225910634, "building": null }, "geometry": { "type": "Point", "coordinates": [ -105.2183037, 40.0204973 ] } },
{ "type": "Feature", "properties": { "amenity": "cafe", "name": "Starbucks", "id": 6397531243, "building": null }, "geometry": { "type": "Point", "coordinates": [ -105.2598971, 40.0346383 ] } },
{ "type": "Feature", "properties": { "amenity": "cafe", "name": "Gabee Coffee", "id": 6397687781, "building": null }, "geometry": { "type": "Point", "coordinates": [ -105.2579847, 40.0299778 ] } },
{ "type": "Feature", "properties": { "amenity": "cafe", "name": "Ampersand Coffee Roasters", "id": 6418820387, "building": null }, "geometry": { "type": "Point", "coordinates": [ -105.200859, 40.0732442 ] } },
{ "type": "Feature", "properties": { "amenity": "cafe", "name": "Peregrine", "id": 6456034210, "building": null }, "geometry": { "type": "Point", "coordinates": [ -105.2786298, 40.0144495 ] } },
{ "type": "Feature", "properties": { "amenity": "cafe", "name": "Ruzo Coffee", "id": 7953689030, "building": null }, "geometry": { "type": "Point", "coordinates": [ -105.280857, 40.0477906 ] } },
{ "type": "Feature", "properties": { "amenity": "cafe", "name": "Boxcar Coffee Roasters", "id": 8436693760, "building": null }, "geometry": { "type": "Point", "coordinates": [ -105.2714568, 40.0197824 ] } },
{ "type": "Feature", "properties": { "amenity": "cafe", "name": "Piece Love and Chocolate", "id": 9239139781, "building": null }, "geometry": { "type": "Point", "coordinates": [ -105.284755, 40.0170578 ] } },
{ "type": "Feature", "properties": { "amenity": "cafe", "name": "Violet Peak Aerospace Cafe", "id": 9295236768, "building": null }, "geometry": { "type": "Point", "coordinates": [ -105.2435705, 40.0099859 ] } },
{ "type": "Feature", "properties": { "amenity": "cafe", "name": "Starbucks", "id": 10173983407, "building": null }, "geometry": { "type": "Point", "coordinates": [ -105.2516804, 39.983455 ] } },
{ "type": "Feature", "properties": { "amenity": "cafe", "name": "The Tune Up", "id": 11023511772, "building": null }, "geometry": { "type": "Point", "coordinates": [ -105.2541933, 40.0244843 ] } },
{ "type": "Feature", "properties": { "amenity": "cafe", "name": "The Coffee Ride", "id": 11042715353, "building": null }, "geometry": { "type": "Point", "coordinates": [ -105.2381365, 40.0237427 ] } },
{ "type": "Feature", "properties": { "amenity": "cafe", "name": "Rapha", "id": 12252271284, "building": null }, "geometry": { "type": "Point", "coordinates": [ -105.2715741, 40.0197739 ] } },
{ "type": "Feature", "properties": { "amenity": "cafe", "name": "Neptune Mountaineering Cafe", "id": 12542720786, "building": null }, "geometry": { "type": "Point", "coordinates": [ -105.2499139, 39.9840161 ] } },
{ "type": "Feature", "properties": { "amenity": "cafe", "name": "Logan's Espresso Cafe", "id": 12590295837, "building": null }, "geometry": { "type": "Point", "coordinates": [ -105.250835, 40.0262871 ] } },
{ "type": "Feature", "properties": { "amenity": "cafe", "name": "Alpine Modern Cafe", "id": 105107031, "building": "yes" }, "geometry": { "type": "Polygon", "coordinates": [ [ [ -105.2818295, 40.0071569 ], [ -105.2818288, 40.0070688 ], [ -105.2816259, 40.0070697 ], [ -105.2816266, 40.0071578 ], [ -105.2818295, 40.0071569 ] ] ] } },
{ "type": "Feature", "properties": { "amenity": "cafe", "name": "Starbucks", "id": 199931296, "building": "retail" }, "geometry": { "type": "Polygon", "coordinates": [ [ [ -105.2527529, 40.015017 ], [ -105.2527503, 40.014908 ], [ -105.2526056, 40.0149099 ], [ -105.2526081, 40.015019 ], [ -105.2527529, 40.015017 ] ] ] } },
{ "type": "Feature", "properties": { "amenity": "cafe", "name": "Aperitivo", "id": 535063767, "building": "yes" }, "geometry": { "type": "Polygon", "coordinates": [ [ [ -105.202168, 40.0749394 ], [ -105.201995, 40.0749385 ], [ -105.2019958, 40.0748461 ], [ -105.2020633, 40.0748465 ], [ -105.2020632, 40.0748625 ], [ -105.2021687, 40.0748631 ], [ -105.202168, 40.0749394 ] ] ] } }
]
}
